NORAD_CAT_ID,OBJECT_NAME,OBJECT_TYPE,EPOCH,MEAN_MOTION,ECCENTRICITY,INCLINATION,RA_OF_ASC_NODE,ARG_OF_PERICENTER,MEAN_ANOMALY,BSTAR,MEAN_MOTION_DOT,MEAN_MOTION_DDOT,TLE_LINE0,TLE_LINE1,TLE_LINE2,SEMIMAJOR_AXIS,PERIOD,APOGEE,PERIGEE,DECAYED
53419.0,STARLINK-4476,PAYLOAD,2023-05-04 09:12:18,15.08837188,0.0001212,53.2155,104.2333,93.3434,266.7697,2.5282e-05,1.15e-06,0.0,0 STARLINK-4476,1 53419U 22097AH  23124.38354330  .00000115  00000-0  25282-4 0  9993,2 53419  53.2155 104.2333 0001212  93.3434 266.7697 15.08837188 41572,6917.889,95.438,540.592,538.916,0.0
53419.0,STARLINK-4476,PAYLOAD,2023-05-04 21:55:23,15.08837305,0.0001199,53.2154,101.8542,93.7155,266.3974,5.5897e-05,6.02e-06,0.0,0 STARLINK-4476,1 53419U 22097AH  23124.91346351  .00000602  00000-0  55897-4 0  9992,2 53419  53.2154 101.8542 0001199  93.7155 266.3974 15.08837305 41658,6917.889,95.438,540.583,538.924,0.0
53419.0,STARLINK-4476,PAYLOAD,2023-05-05 07:27:41,15.08845606,0.0001186,53.2152,100.0698,93.679,266.4338,8.5184e-05,1.068e-05,0.0,0 STARLINK-4476,1 53419U 22097AH  23125.31089717  .00001068  00000-0  85184-4 0  9996,2 53419  53.2152 100.0698 0001186  93.6790 266.4338 15.08845606 41253,6917.863,95.437,540.549,538.908,0.0
53419.0,STARLINK-4476,PAYLOAD,2023-05-05 15:24:37,15.08839708,0.0001287,53.2159,98.5836,88.2416,271.8724,1.6485e-05,-2.6e-07,0.0,0 STARLINK-4476,1 53419U 22097AH  23125.64210340 -.00000026  00000-0  16485-4 0  9992,2 53419  53.2159  98.5836 0001287  88.2416 271.8724 15.08839708 41303,6917.881,95.438,540.637,538.856,0.0
53419.0,STARLINK-4476,PAYLOAD,2023-05-05 21:46:10,15.08835754,0.0001475,53.2158,97.3944,88.3974,271.7187,4.8635e-05,4.86e-06,0.0,0 STARLINK-4476,1 53419U 22097AH  23125.90706611  .00000486  00000-0  48635-4 0  9993,2 53419  53.2158  97.3944 0001475  88.3974 271.7187 15.08835754 41802,6917.893,95.438,540.779,538.738,0.0
53419.0,STARLINK-4476,PAYLOAD,2023-05-06 15:15:24,15.08845487,0.000122,53.2159,94.1224,89.4209,270.6923,0.00010609,1.401e-05,0.0,0 STARLINK-4476,1 53419U 22097AH  23126.63570072  .00001401  00000-0  10609-3 0  9991,2 53419  53.2159  94.1224 0001220  89.4209 270.6923 15.08845487 41912,6917.864,95.437,540.573,538.885,0.0
53419.0,STARLINK-4476,PAYLOAD,2023-05-07 03:58:28,15.08857979,0.0001223,53.2159,91.7422,98.9883,261.1248,0.00014754,2.062e-05,0.0,0 STARLINK-4476,1 53419U 22097AH  23127.16561027  .00002062  00000-0  14754-3 0  9999,2 53419  53.2159  91.7422 0001223  98.9883 261.1248 15.08857979 41533,6917.825,95.436,540.536,538.844,0.0
53419.0,STARLINK-4476,PAYLOAD,2023-05-08 03:49:17,15.08834327,0.0001216,53.2159,87.2819,90.7167,269.3965,3.4756e-05,2.65e-06,0.0,0 STARLINK-4476,1 53419U 22097AH  23128.15923102  .00000265  00000-0  34756-4 0  9993,2 53419  53.2159  87.2819 0001216  90.7167 269.3965 15.08834327 41684,6917.898,95.438,540.604,538.922,0.0
53419.0,STARLINK-4476,PAYLOAD,2023-05-08 07:00:03,15.08834227,0.0001203,53.2157,86.6878,84.9575,275.1555,8.7129e-06,-1.49e-06,0.0,0 STARLINK-4476,1 53419U 22097AH  23128.29170948 -.00000149  00000-0  87129-5 0  9995,2 53419  53.2157  86.6878 0001203  84.9575 275.1555 15.08834227 42167,6917.898,95.438,540.595,538.931,0.0
53419.0,STARLINK-4476,PAYLOAD,2023-05-09 03:40:03,15.08852726,0.0001073,53.2156,82.8225,82.4814,277.63,0.00017447,2.491e-05,0.0,0 STARLINK-4476,1 53419U 22097AH  23129.15281994  .00002491  00000-0  17447-3 0  9990,2 53419  53.2156  82.8225 0001073  82.4814 277.6300 15.08852726 41836,6917.841,95.437,540.449,538.964,0.0
53419.0,STARLINK-4476,PAYLOAD,2023-05-10 06:41:37,15.08848791,0.0001086,53.2171,77.7697,108.2901,251.8209,0.00021905,3.201e-05,0.0,0 STARLINK-4476,1 53419U 22097AH  23130.27890355  .00003201  00000-0  21905-3 0  9996,2 53419  53.2171  77.7697 0001086 108.2901 251.8209 15.08848791 42466,6917.854,95.437,540.47,538.967,0.0
53419.0,STARLINK-4476,PAYLOAD,2023-05-11 03:21:38,15.08844081,0.0001029,53.2157,73.9041,101.8645,258.2462,-1.032e-05,-4.52e-06,0.0,0 STARLINK-4476,1 53419U 22097AH  23131.14002429 -.00000452  00000-0 -10320-4 0  9997,2 53419  53.2157  73.9041 0001029 101.8645 258.2462 15.08844081 42596,6917.868,95.437,540.445,539.021,0.0
53419.0,STARLINK-4476,PAYLOAD,2023-05-12 00:01:39,15.08832633,0.0001019,53.216,70.0364,95.7971,264.3137,-3.6525e-05,-8.69e-06,0.0,0 STARLINK-4476,1 53419U 22097AH  23132.00115438 -.00000869  00000-0 -36525-4 0  9995,2 53419  53.2160  70.0364 0001019  95.7971 264.3137 15.08832633 42269,6917.903,95.438,540.473,539.063,0.0
53419.0,STARLINK-4476,PAYLOAD,2023-05-12 03:12:26,15.08832058,9.65e-05,53.216,69.4429,95.678,264.4322,-3.116e-05,-7.83e-06,0.0,0 STARLINK-4476,1 53419U 22097AH  23132.13363620 -.00000783  00000-0 -31160-4 0  9992,2 53419  53.2160  69.4429 0000965  95.6780 264.4322 15.08832058 42740,6917.905,95.438,540.437,539.102,0.0
53419.0,STARLINK-4476,PAYLOAD,2023-05-13 03:03:12,15.08854207,0.0001109,53.2161,64.9809,87.9043,272.2076,0.000308,4.619e-05,0.0,0 STARLINK-4476,1 53419U 22097AH  23133.12722764  .00004619  00000-0  30800-3 0  9999,2 53419  53.2161  64.9809 0001109  87.9043 272.2076 15.08854207 42439,6917.837,95.437,540.469,538.935,0.0
53419.0,STARLINK-4476,PAYLOAD,2023-05-14 04:29:23,15.08844896,0.000125,53.2161,60.2229,85.1417,274.9717,0.00024431,3.603e-05,0.0,0 STARLINK-4476,1 53419U 22097AH  23134.18707597  .00003603  00000-0  24431-3 0  9998,2 53419  53.2161  60.2229 0001250  85.1417 274.9717 15.08844896 42597,6917.865,95.437,540.595,538.866,0.0
53419.0,STARLINK-4476,PAYLOAD,2023-05-15 12:17:05,15.08845273,0.0001314,53.2165,54.2751,83.2858,276.8284,0.00048309,7.41e-05,0.0,0 STARLINK-4476,1 53419U 22097AH  23135.51187376  .00007410  00000-0  48309-3 0  9993,2 53419  53.2165  54.2751 0001314  83.2858 276.8284 15.08845273 42795,6917.864,95.437,540.638,538.82,0.0
53419.0,STARLINK-4476,PAYLOAD,2023-05-16 01:00:11,15.08840827,0.0001552,53.2175,51.8965,92.017,268.1,6.394e-05,7.3e-06,0.0,0 STARLINK-4476,1 53419U 22097AH  23136.04179574  .00000730  00000-0  63940-4 0  9990,2 53419  53.2175  51.8965 0001552  92.0170 268.1000 15.08840827 42874,6917.878,95.438,540.817,538.669,0.0
53419.0,STARLINK-4476,PAYLOAD,2023-05-16 21:40:11,15.08842905,0.0001671,53.2184,48.0278,108.4965,251.6209,0.00023611,3.472e-05,0.0,0 STARLINK-4476,1 53419U 22097AH  23136.90291380  .00003472  00000-0  23611-3 0  9991,2 53419  53.2184  48.0278 0001671 108.4965 251.6209 15.08842905 43468,6917.872,95.437,540.892,538.581,0.0
53419.0,STARLINK-4476,PAYLOAD,2023-05-17 00:50:57,15.08855148,0.0001433,53.2175,47.4397,84.2073,275.9083,-9.8881e-05,-1.862e-05,0.0,0 STARLINK-4476,1 53419U 22097AH  23137.03538844 -.00001862  00000-0 -98881-4 0  9990,2 53419  53.2175  47.4397 0001433  84.2073 275.9083 15.08855148 43024,6917.834,95.437,540.69,538.708,0.0
53419.0,STARLINK-4476,PAYLOAD,2023-05-17 21:31:00,15.08806733,0.0001155,53.2171,43.5777,89.3522,270.7602,0.0010404,0.00016294,0.0,0 STARLINK-4476,1 53419U 22097AH  23137.89653676  .00016294  00000-0  10404-2 0  9991,2 53419  53.2171  43.5777 0001155  89.3522 270.7602 15.08806733 43616,6917.982,95.44,540.646,539.048,0.0
53419.0,STARLINK-4476,PAYLOAD,2023-05-18 00:41:45,15.08841094,0.0001345,53.2168,42.9751,81.7375,278.377,0.00014585,2.034e-05,0.0,0 STARLINK-4476,1 53419U 22097AH  23138.02899508  .00002034  00000-0  14585-3 0  9995,2 53419  53.2168  42.9751 0001345  81.7375 278.3770 15.08841094 43170,6917.877,95.437,540.672,538.812,0.0
53419.0,STARLINK-4476,PAYLOAD,2023-05-18 16:35:36,15.08839655,0.0001332,53.2172,40.0051,84.7057,275.4087,-2.5716e-05,-6.97e-06,0.0,0 STARLINK-4476,1 53419U 22097AH  23138.69139670 -.00000697  00000-0 -25716-4 0  9999,2 53419  53.2172  40.0051 0001332  84.7057 275.4087 15.08839655 43734,6917.881,95.438,540.668,538.825,0.0
53419.0,STARLINK-4476,PAYLOAD,2023-05-19 03:43:18,15.08839863,0.0001222,53.2165,37.9213,84.41,275.7032,-5.2544e-06,-3.71e-06,0.0,0 STARLINK-4476,1 53419U 22097AH  23139.15507715 -.00000371  00000-0 -52544-5 0  9999,2 53419  53.2165  37.9213 0001222  84.4100 275.7032 15.08839863 43346,6917.881,95.438,540.591,538.9,0.0
53419.0,STARLINK-4476,PAYLOAD,2023-05-19 21:12:33,15.08838567,0.0001168,53.2163,34.6501,84.2667,275.8458,8.1764e-05,1.014e-05,0.0,0 STARLINK-4476,1 53419U 22097AH  23139.88371940  .00001014  00000-0  81764-4 0  9996,2 53419  53.2163  34.6501 0001168  84.2667 275.8458 15.08838567 43919,6917.885,95.438,540.558,538.942,0.0
53419.0,STARLINK-4476,PAYLOAD,2023-05-20 01:58:42,15.08836736,0.0001184,53.2168,33.7576,86.4131,273.6997,0.00025697,3.804e-05,0.0,0 STARLINK-4476,1 53419U 22097AH  23140.08243960  .00003804  00000-0  25697-3 0  9991,2 53419  53.2168  33.7576 0001184  86.4131 273.6997 15.08836736 43947,6917.89,95.438,540.574,538.936,0.0
53419.0,STARLINK-4476,PAYLOAD,2023-05-21 01:49:28,15.08862871,0.0001325,53.2178,29.2974,79.3126,280.8016,0.00041271,6.291e-05,0.0,0 STARLINK-4476,1 53419U 22097AH  23141.07602624  .00006291  00000-0  41271-3 0  9996,2 53419  53.2178  29.2974 0001325  79.3126 280.8016 15.08862871 43639,6917.81,95.436,540.592,538.759,0.0
53419.0,STARLINK-4476,PAYLOAD,2023-05-21 16:07:58,15.08821699,0.0001013,53.2174,26.6199,92.972,267.1388,-0.00029336,-4.951e-05,0.0,0 STARLINK-4476,1 53419U 22097AH  23141.67220537 -.00004951  00000-0 -29336-3 0  9992,2 53419  53.2174  26.6199 0001013  92.9720 267.1388 15.08821699 43723,6917.936,95.439,540.502,539.101,0.0
53419.0,STARLINK-4476,PAYLOAD,2023-05-21 22:29:31,15.08825655,0.000201,53.2167,25.4319,88.1418,271.9805,-0.00019216,-3.344e-05,0.0,0 STARLINK-4476,1 53419U 22097AH  23141.93716847 -.00003344  00000-0 -19216-3 0  9996,2 53419  53.2167  25.4319 0002010  88.1418 271.9805 15.08825655 44224,6917.924,95.438,541.18,538.399,0.0
53419.0,STARLINK-4476,PAYLOAD,2023-05-22 09:37:13,15.0882605,0.0001197,53.218,23.3512,79.7206,280.3921,0.00011255,1.503e-05,0.0,0 STARLINK-4476,1 53419U 22097AH  23142.40085443  .00001503  00000-0  11255-3 0  9998,2 53419  53.2180  23.3512 0001197  79.7206 280.3921 15.08826050 44297,6917.923,95.438,540.616,538.96,0.0
